[{"OBJECT_NAME":"STARLINK-1506","OBJECT_ID":"2020-038T","EPOCH":"2026-03-09T15:50:48.887520","MEAN_MOTION":15.26134655,"ECCENTRICITY":0.00025141,"INCLINATION":53.0733,"RA_OF_ASC_NODE":202.5028,"ARG_OF_PERICENTER":227.7836,"MEAN_ANOMALY":132.2949,"EPHEMERIS_TYPE":0,"CLASSIFICATION_TYPE":"U","NORAD_CAT_ID":45747,"ELEMENT_SET_NO":999,"REV_AT_EPOCH":31668,"BSTAR":0.0009799682,"MEAN_MOTION_DOT":0.0002538,"MEAN_MOTION_DDOT":0},{"OBJECT_NAME":"STARLINK-30782","OBJECT_ID":"2023-162V","EPOCH":"2026-03-09T22:00:01.999584","MEAN_MOTION":15.26696154,"ECCENTRICITY":9.959e-5,"INCLINATION":43,"RA_OF_ASC_NODE":131.028,"ARG_OF_PERICENTER":232.3366,"MEAN_ANOMALY":133.0133,"EPHEMERIS_TYPE":0,"CLASSIFICATION_TYPE":"U","NORAD_CAT_ID":58137,"ELEMENT_SET_NO":999,"REV_AT_EPOCH":568,"BSTAR":0.00090431555,"MEAN_MOTION_DOT":0.00024044,"MEAN_MOTION_DDOT":0}]
